C/2019 O2 (PANSTARRS),e,93.3056,48.2609,129.5822,58.67932,0.0021927,0.83501291,1.5126,02/24.0/2025,2000,g  5.0,4.0
# From MPEC 2025-CE3
C/2019 O3 (Palomar),h,03/08.8211/2021,89.7992,300.4718,60.1113,1.003185,8.820990,2000,3.5,4.0
# From MPEC 2021-P47
A/2019 O4,e,115.0217,354.9278,61.8381,33.25343,0.0051398,0.89043936,9.4564,02/24.0/2025,2000,g 15.5,2.0
# From MPEC 2024-EF7
C/2019 Q1 (Lemmon),h,07/22.0139/2020,155.7257,42.4629,56.2593,1.002289,5.004058,2000,8.5,4.0
# From MPC117072
A/2019 Q2,e,158.9840,188.1016,176.5011,58.73458,0.0021896,0.97851208,0.0000,07/23.3544/2019,2000,g 18.0,2.0
# From MPC117072
P/2019 S2 (PANSTARRS),e,10.4636,93.1802,216.9780,4.746998,0.0952962,0.20467831,209.5402,02/24.0/2025,2000,g 13.5,4.0
# From MPEC 2022-CN4
P/2019 S3 (PANSTARRS),e,8.6937,150.1437,213.0938,3.414614,0.1562038,0.47080224,313.4266,02/24.0/2025,2000,g 18.3,4.0
# From MPEC 2021-S45
C/2019 S4 (Lemmon),e,92.1046,63.1577,71.3722,247.0110,0.0002539,0.98607418,0.0000,04/09.1517/2020,2000,g 11.0,4.0
# From MPEC 2023-N01
A/2019 T1,e,120.8327,6.9349,91.0004,38.79663,0.0040786,0.88979081,6.1219,02/24.0/2025,2000,g 13.0,2.0
# From MPEC 2023-R20
C/2019 T2 (Lemmon),e,111.3885,155.6558,239.3977,3987,0.0000039,0.99933687,0.0000,04/22.6257/2021,2000,g  9.0,4.0
# From MPEC 2023-UR6
C/2019 T3 (ATLAS),e,121.8671,139.5402,112.4848,4107,0.0000037,0.99855033,0.0000,03/04.5863/2021,2000,g  6.8,4.0
# From MPEC 2025-CE3
C/2019 T4 (ATLAS),e,53.6254,199.9130,351.1080,874.7680,0.0000381,0.99515520,0.0000,06/08.6386/2022,2000,g  5.0,4.0
# From MPEC 2021-P47
P/2019 T5 (ATLAS),e,33.4986,247.6112,189.6133,8.006100,0.0435083,0.80982916,88.3958,02/24.0/2025,2000,g 15.0,4.0
# From MPEC 2021-P47
P/2019 T6 (PANSTARRS),e,18.7001,71.2439,329.0538,5.442115,0.0776341,0.62264669,150.1392,02/24.0/2025,2000,g 15.5,4.0
# From MPC118096
P/2019 U4 (PANSTARRS),e,11.6958,200.0071,181.0761,3.519023,0.1493038,0.47580796,296.0236,02/24.0/2025,2000,g 19.0,4.0
# From MPEC 2025-D44
C/2019 U5 (PANSTARRS),h,03/29.5235/2023,113.5124,2.6191,181.4520,1.000351,3.623926,2000,4.5,4.0
# From MPEC 2022-H04
C/2019 U6 (Lemmon),e,60.9746,235.7721,329.4413,306.4969,0.0001837,0.99703849,0.0000,06/18.2747/2020,2000,g 10.0,4.0
# From MPEC 2022-N37
C/2019 V1 (Borisov),e,61.9503,83.1479,51.1844,2344,0.0000087,0.99868076,0.0000,07/17.3562/2020,2000,g 11.0,4.0
# From MPEC 2022-L66
P/2019 V2 (Groeller),e,11.8068,189.1493,335.6199,7.494499,0.0480386,0.33173696,76.4321,02/24.0/2025,2000,g 10.0,4.0
# From MPEC 2023-A50
P/2019 W1 (PANSTARRS),e,23.4690,35.3674,18.8705,4.548483,0.1016024,0.26727188,214.9107,02/24.0/2025,2000,g 12.9,4.0
# From MPEC 2021-P47
P/2019 X1 (Pruyne),e,10.2473,43.6788,36.9527,6.178394,0.0641787,0.30393679,131.0218,02/24.0/2025,2000,g 10.4,4.0
# From MPEC 2020-C98
P/2019 X2 (Pan-STARRS),e,15.8950,250.8368,213.4960,3.634535,0.1422430,0.50043431,270.4893,02/24.0/2025,2000,g 18.0,4.0
# From MPC119999
C/2019 Y1 (ATLAS),e,73.3127,31.4995,57.9087,88.00928,0.0011937,0.99060859,0.0000,03/17.0618/2020,2000,g 13.7,4.0
# From MPEC 2025-D44
P/2019 Y3 (Catalina),e,24.5831,139.3103,2.5501,3.017208,0.1880599,0.69142669,358.4222,02/24.0/2025,2000,g 18.5,4.0
# From MPEC 2024-A43
C/2019 Y4 (ATLAS),e,44.9639,120.7787,177.4196,336.9011,0.0001594,0.99923672,0.0000,05/29.9250/2020,2000,g 11.8,6.0
# From MPEC 2020-L06
C/2019 Y4-A (ATLAS),h,05/29.9727/2020,45.3997,121.1456,177.2522,1.001378,0.255308,2000,11.6,6.0
# From MPEC 2025-CE3
C/2019 Y4-B (ATLAS),e,45.0455,120.8417,177.3788,1473,0.0000174,0.99982562,0.0000,05/29.9320/2020,2000,g 12.1,6.0
# From MPEC 2020-L06
C/2019 Y4-C (ATLAS),h,05/29.9253/2020,45.1833,120.8729,177.2851,1.002107,0.256383,2000,12.7,6.0
# From MPEC 2020-L06
C/2019 Y4-D (ATLAS),e,45.2352,121.2359,177.4270,67.55389,0.0017751,0.99621498,0.0000,05/30.0255/2020,2000,g 12.5,6.0
# From MPEC 2023-A50
C/2019 Y5 (PANSTARRS),e,82.7677,51.7581,303.6527,694.6293,0.0000538,0.99289994,0.0000,08/16.8118/2019,2000,g 11.0,4.0
# From MPEC 2023-A50
A/2020 A1,e,149.0317,119.0779,302.3979,25.47275,0.0076664,0.93444180,14.6613,02/24.0/2025,2000,g 18.0,2.0
# From MPEC 2022-YN2
C/2020 A2 (Iwamoto),e,120.5136,286.1970,68.0123,1010,0.0000307,0.99903523,0.0000,01/07.4680/2020,2000,g 13.5,4.0
# From MPEC 2023-A50
C/2020 A3 (ATLAS),e,146.6255,120.8000,268.2482,7161,0.0000016,0.99919663,0.0000,06/27.3563/2019,2000,g  8.0,4.0
# From MPEC 2022-P91
P/2020 A4 (PANSTARRS-Lemmon),e,25.0005,312.2936,144.8750,8.200952,0.0419670,0.65449694,80.5215,02/24.0/2025,2000,g 15.0,4.0
# From MPEC 2020-N08
A/2020 B1,e,18.5372,309.8230,154.8452,51.96732,0.0026309,0.96654608,4.9606,02/24.0/2025,2000,g 21.0,2.0
# From MPEC 2020-HN5
C/2020 B2 (Lemmon),e,55.7536,354.2026,143.6098,67.79604,0.0017656,0.95934859,3.2749,02/24.0/2025,2000,g 10.0,4.0
# From MPEC 2022-N37
C/2020 B3 (Rankin),e,20.7070,185.7696,324.9062,1012,0.0000306,0.99671057,0.0000,10/20.5050/2019,2000,g 13.0,4.0
# From MPEC 2023-KD6
P/2020 B4 (Sheppard),e,11.6041,185.9571,342.0064,7.971519,0.0437918,0.19270635,52.2603,02/24.0/2025,2000,g 10.5,4.0
# From MPEC 2025-CE3
C/2020 F2 (ATLAS),h,07/12.8186/2022,163.5896,250.3038,48.2479,1.003146,8.813584,2000,4.5,4.0
# From MPEC 2021-O56
C/2020 F3 (NEOWISE),e,129.1419,61.0912,37.3697,397.7376,0.0001243,0.99926079,0.0000,07/04.7313/2020,2000,g  7.5,5.2
# From MPEC 2024-UQ8
C/2020 F5 (MASTER),e,52.2260,350.5299,310.6396,165.6452,0.0004623,0.97387898,0.0000,03/16.3877/2021,2000,g  6.5,3.2
# From MPEC 2020-L06
C/2020 F6 (PANSTARRS),e,174.5838,207.8567,344.3633,350.4743,0.0001502,0.99001849,0.0000,04/10.7141/2020,2000,g 14.5,2.8
# From MPEC 2024-A43
C/2020 F7 (Lemmon),e,93.9761,321.8284,227.9699,560.9441,0.0000742,0.99049084,0.0000,11/13.7387/2021,2000,g  7.0,4.0
# From MPEC 2023-J29
C/2020 F8 (SWAN),h,05/26.1078/2020,110.5492,259.7938,68.0931,1.000081,0.431918,2000,10.0,4.0
# From MPEC 2020-L06
P/2020 G1 (Pimentel),e,18.5100,240.1066,207.6362,3.606858,0.1438833,0.86081060,259.3921,02/24.0/2025,2000,g 17.0,4.0
# From MPEC 2022-YB4
C/2020 H2 (Pruyne),e,124.7841,277.6716,26.5929,179.1527,0.0004110,0.99537503,0.0000,04/27.1775/2020,2000,g 14.0,3.2
# From MPEC 2020-HM1
C/2020 H3 (Wierzchos),p,06/05.7162/2020,62.5292,30.4456,2.300288,270.6227,2000,13.5,4.0
# From MPEC 2020-L06
C/2020 H4 (Leonard),e,84.4945,307.4824,117.5573,47.83345,0.0029792,0.98063273,0.0000,08/29.3694/2020,2000,g 15.0,3.2
# From MPEC 2024-P23
C/2020 H5 (Robinson),e,70.2373,210.6195,326.2678,5515,0.0000024,0.99830720,0.0000,12/09.9249/2020,2000,g  5.0,4.0
# From MPEC 2024-JU4
C/2020 H6 (ATLAS),e,79.9841,213.7019,20.2047,2152,0.0000099,0.99781752,0.0000,09/29.7141/2021,2000,g  8.0,3.2
# From MPEC 2020-KB7
C/2020 H7 (Lemmon),e,135.9235,323.5194,82.6780,1405,0.0000187,0.99685380,0.0000,06/02.9510/2020,2000,g 11.0,4.0
# From MPEC 2021-N06
C/2020 H8 (PANSTARRS),e,99.7063,68.4435,128.8422,594.3610,0.0000680,0.99215029,0.0000,06/04.7386/2020,2000,g 10.5,4.0
# From MPEC 2022-ED3
A/2020 H9,e,137.8752,213.1409,312.6567,347.2913,0.0001523,0.99261923,0.0000,12/21.9014/2019,2000,g 18.0,2.0
# From MPEC 2023-HN7
C/2020 H11 (PANSTARRS-Lemmon),h,09/13.0067/2020,151.3763,303.0559,91.3771,1.000222,7.621133,2000,8.5,4.0
# From MPEC 2023-KD6
C/2020 J1 (SONEAR),e,142.3064,226.5967,341.6075,28006,0.0000002,0.99988053,0.0000,04/18.2265/2021,2000,g  8.5,3.2
# From MPEC 2025-D44
C/2020 K1 (PANSTARRS),e,89.6710,94.3668,213.9727,3063,0.0000058,0.99899650,0.0000,05/08.8780/2023,2000,g  5.5,4.0
# From MPEC 2021-N06
C/2020 K2 (PANSTARRS),h,08/04.9116/2020,90.9915,288.4312,67.3204,1.001485,8.880315,2000,10.8,4.0
# From MPEC 2020-KF9
C/2020 K3 (Leonard),p,06/01.0032/2020,129.0152,64.4924,1.583069,28.3546,2000,14.5,4.0
# From MPEC 2020-L06
C/2020 K4 (PANSTARRS),e,125.5848,264.2769,308.8105,23.94158,0.0084135,0.92707785,15.2885,02/24.0/2025,2000,g 16.5,4.0
# From MPEC 2021-R75
C/2020 K5 (PANSTARRS),h,06/04.5261/2021,67.0674,86.1411,249.6406,1.000904,1.540059,2000,11.0,4.0
# From MPEC 2023-N01
C/2020 K6 (Rankin),h,09/15.0400/2021,103.6329,291.5962,44.2934,1.002510,5.866683,2000,8.0,4.0
# From MPEC 2023-A50
C/2020 K7 (PANSTARRS),e,32.0444,286.1294,358.1143,95.14498,0.0010620,0.93283387,2.0691,02/24.0/2025,2000,g  8.0,4.0
# From MPEC 2021-P47
C/2020 K8 (Catalina-ATLAS),h,09/15.6140/2020,31.3978,181.3556,260.1030,1.000300,0.471110,2000,15.0,3.2
# From MPEC 2021-BE3
P/2020 K9 (Lemmon-PANSTARRS),e,23.1932,166.3129,197.0967,4.206792,0.1142293,0.32031107,168.3042,02/24.0/2025,2000,g 12.5,4.0
# From MPEC 2023-C45
P/2020 M1 (PANSTARRS),e,8.5342,142.6113,72.5188,5.312881,0.0804839,0.47330308,152.0976,02/24.0/2025,2000,g 14.5,4.0
# From MPEC 2022-H30
C/2020 M3 (ATLAS),e,23.4722,71.1671,328.6559,27.29067,0.0069133,0.95332915,10.9375,02/24.0/2025,2000,g 14.5,4.0
# From MPEC 2023-N01
A/2020 M4,h,11/23.1199/2020,160.1066,348.6176,104.5054,1.000099,5.942073,2000,14.5,2.0
# From MPEC 2024-NE4
P/2020 MK4 (PANSTARRS),e,6.7825,0.6736,93.3717,6.222687,0.0634947,0.01470850,310.4117,02/24.0/2025,2000,g  8.0,4.0
# From MPEC 2023-FK0
C/2020 M5 (ATLAS),h,08/19.8145/2021,93.1812,352.0348,126.2457,1.000163,2.999672,2000,9.0,4.0
# From MPEC 2022-GA9
C/2020 N1 (PANSTARRS),h,03/13.0352/2021,29.7631,279.8601,186.8199,1.000796,1.317106,2000,12.5,4.0
# From MPEC 2021-P47
C/2020 N2 (ATLAS),e,161.0380,257.1852,331.2322,101.8775,0.0009585,0.98247582,0.0000,08/24.3558/2020,2000,g 16.0,3.2
# From MPEC 2024-JU4
C/2020 O2 (Amaral),e,71.7615,256.7943,10.1967,41945,0.0000001,0.99988418,0.0000,08/27.4901/2021,2000,g  8.0,3.2
# From MPEC 2023-C45
P/2020 O3 (PANSTARRS),e,8.4444,266.8178,81.3096,4.646558,0.0984027,0.10241321,146.6077,02/24.0/2025,2000,g 12.0,4.0
# From MPEC 2021-BE3
C/2020 P1 (NEOWISE),h,10/21.1316/2020,45.1420,53.4815,8.9231,1.000424,0.341344,2000,14.0,3.2
# From MPEC 2024-JU4
C/2020 P3 (ATLAS),h,04/22.7483/2021,61.8648,19.4805,82.3377,1.003529,6.815123,2000,6.0,4.0
# From MPEC 2022-PB4
C/2020 PV6 (PANSTARRS),e,128.1647,329.1333,71.2967,41.76171,0.0036520,0.94513239,4.5542,02/24.0/2025,2000,g 10.0,4.0
# From MPEC 2022-L66
